{
  "norad_id": 65333,
  "name": "STARLINK-34602",
  "history": [
    {
      "epoch": "2026-03-28T11:04:09.689664",
      "apogee_km": 476.4384894607938,
      "perigee_km": 473.99554288818945,
      "latitude_deg": -50.05439888553876,
      "longitude_deg": 37.577432959806174,
      "semi_major_axis_km": 6853.354016174491,
      "eccentricity": 0.00017823,
      "inclination_deg": 53.1598,
      "raan_deg": 119.3362,
      "arg_perigee_deg": 60.6238,
      "mean_anomaly_deg": 299.494,
      "mean_motion_rev_day": 15.30199348
    }
  ]
}