{"fetched_at":"2026-03-29T16:36:15Z","count":15609,"tles":[{"name":"STARLINK-34602","line1":"1 65333U 25189L   26087.46122326  .00019949  00000+0  68385-3 0  9998","line2":"2 65333  53.1598 119.3362 0001782  60.6238 299.4940 15.30199348 33984","category":"Starlink"}]}